{
    "links": {
        "self": "http://www.neowsapp.com/rest/v1/neo/3756757?api_key=iIulBulltgU6a56xZRHN4H3l9WmuAYTsLGpBGhQ2"
    },
    "id": "3756757",
    "neo_reference_id": "3756757",
    "name": "(2016 PH)",
    "designation": "2016 PH",
    "nasa_jpl_url": "http://ssd.jpl.nasa.gov/sbdb.cgi?sstr=3756757",
    "absolute_magnitude_h": 24.6,
    "estimated_diameter": {
        "kilometers": {
            "estimated_diameter_min": 0.0319561887,
            "estimated_diameter_max": 0.0714562102
        },
        "meters": {
            "estimated_diameter_min": 31.9561886721,
            "estimated_diameter_max": 71.4562101727
        },
        "miles": {
            "estimated_diameter_min": 0.0198566489,
            "estimated_diameter_max": 0.0444008168
        },
        "feet": {
            "estimated_diameter_min": 104.8431420431,
            "estimated_diameter_max": 234.436392583
        }
    },
    "is_potentially_hazardous_asteroid": false,
    "close_approach_data": [
        {
            "close_approach_date": "2016-07-18",
            "close_approach_date_full": "2016-Jul-18 10:58",
            "epoch_date_close_approach": 1468839480000,
            "relative_velocity": {
                "kilometers_per_second": "6.7448294283",
                "kilometers_per_hour": "24281.385941915",
                "miles_per_hour": "15087.508948186"
            },
            "miss_distance": {
                "astronomical": "0.1270196744",
                "lunar": "49.4106533416",
                "kilometers": "19001872.738333528",
                "miles": "11807216.2117095664"
            },
            "orbiting_body": "Earth"
        }
    ],
    "orbital_data": {
        "orbit_id": "4",
        "orbit_determination_date": "2017-04-06 08:24:47",
        "first_observation_date": "2016-08-01",
        "last_observation_date": "2016-08-09",
        "data_arc_in_days": 8,
        "observations_used": 15,
        "orbit_uncertainty": "9",
        "minimum_orbit_intersection": ".122452",
        "jupiter_tisserand_invariant": "3.582",
        "epoch_osculation": "2457605.5",
        "eccentricity": ".4610189340553013",
        "semi_major_axis": "2.109302318453022",
        "inclination": "9.277554355916353",
        "ascending_node_longitude": "123.8644406622469",
        "orbital_period": "1118.939671637336",
        "perihelion_distance": "1.136874011999434",
        "perihelion_argument": "171.082629783596",
        "aphelion_distance": "3.081730624906609",
        "perihelion_time": "2457585.118963616339",
        "mean_anomaly": "6.55725530526729",
        "mean_motion": ".3217331632126464",
        "equinox": "J2000",
        "orbit_class": {
            "orbit_class_type": "AMO",
            "orbit_class_description": "Near-Earth asteroid orbits similar to that of 1221 Amor",
            "orbit_class_range": "1.017 AU < q (perihelion) < 1.3 AU"
        }
    },
    "is_sentry_object": false
}